$$SOE
2460714.500000000, A.D. 2025-Feb-08 00:00:00.0000, -3.449579962255125E+09, -6.102111906205939E+09, 4.739452204557946E+08,
2460721.500000000, A.D. 2025-Feb-15 00:00:00.0000, -3.447464152563567E+09, -6.103258831806565E+09, 4.745339978557012E+08,
2460728.500000000, A.D. 2025-Feb-22 00:00:00.0000, -3.445347868741735E+09, -6.104404991979454E+09, 4.751227094093843E+08,
2460735.500000000, A.D. 2025-Mar-01 00:00:00.0000, -3.443231108805709E+09, -6.105550386169903E+09, 4.757113548642495E+08,
2460742.500000000, A.D. 2025-Mar-08 00:00:00.0000, -3.441113869689655E+09, -6.106695013938757E+09, 4.762999338167474E+08,
2460749.500000000, A.D. 2025-Mar-15 00:00:00.0000, -3.438996147268068E+09, -6.107838873126925E+09, 4.768884458678992E+08,
2460756.500000000, A.D. 2025-Mar-22 00:00:00.0000, -3.436877938586168E+09, -6.108981959432806E+09, 4.774768908672168E+08,
2460763.500000000, A.D. 2025-Mar-29 00:00:00.0000, -3.434759242720964E+09, -6.110124268244427E+09, 4.780652688478315E+08,
2460770.500000000, A.D. 2025-Apr-05 00:00:00.0000, -3.432640059947757E+09, -6.111265795587850E+09, 4.786535798792155E+08,
2460777.500000000, A.D. 2025-Apr-12 00:00:00.0000, -3.430520391138008E+09, -6.112406538087674E+09, 4.792418240223205E+08,
2460784.500000000, A.D. 2025-Apr-19 00:00:00.0000, -3.428400237575789E+09, -6.113546492820672E+09, 4.798300013320155E+08,
2460791.500000000, A.D. 2025-Apr-26 00:00:00.0000, -3.426279600921148E+09, -6.114685657265259E+09, 4.804181118650289E+08,
2460798.500000000, A.D. 2025-May-03 00:00:00.0000, -3.424158483206712E+09, -6.115824029327271E+09, 4.810061556843352E+08,
2460805.500000000, A.D. 2025-May-10 00:00:00.0000, -3.422036886838932E+09, -6.116961607433000E+09, 4.815941328578727E+08,
2460812.500000000, A.D. 2025-May-17 00:00:00.0000, -3.419914814567255E+09, -6.118098390730186E+09, 4.821820434447420E+08,
2460819.500000000, A.D. 2025-May-24 00:00:00.0000, -3.417792269247293E+09, -6.119234379451213E+09, 4.827698874483981E+08,
2460826.500000000, A.D. 2025-May-31 00:00:00.0000, -3.415669252980200E+09, -6.120369575127196E+09, 4.833576647238724E+08,
2460833.500000000, A.D. 2025-Jun-07 00:00:00.0000, -3.413545766029233E+09, -6.121503979448000E+09, 4.839453749742301E+08,
2460840.500000000, A.D. 2025-Jun-14 00:00:00.0000, -3.411421807878009E+09, -6.122637592434830E+09, 4.845330179986663E+08,
2460847.500000000, A.D. 2025-Jun-21 00:00:00.0000, -3.409297379213727E+09, -6.123770413196554E+09, 4.851205938132987E+08,
2460854.500000000, A.D. 2025-Jun-28 00:00:00.0000, -3.407172481707135E+09, -6.124902441504939E+09, 4.857081025020044E+08,
2460861.500000000, A.D. 2025-Jul-05 00:00:00.0000, -3.405047117105975E+09, -6.126033678032122E+09, 4.862955441126680E+08,
2460868.500000000, A.D. 2025-Jul-12 00:00:00.0000, -3.402921286832905E+09, -6.127164124055547E+09, 4.868829186423411E+08,
2460875.500000000, A.D. 2025-Jul-19 00:00:00.0000, -3.400794991898316E+09, -6.128293781205263E+09, 4.874702260469911E+08,
2460882.500000000, A.D. 2025-Jul-26 00:00:00.0000, -3.398668232918136E+09, -6.129422651310029E+09, 4.880574662520595E+08,
2460889.500000000, A.D. 2025-Aug-02 00:00:00.0000, -3.396541010171206E+09, -6.130550736320377E+09, 4.886446391596801E+08,
2460896.500000000, A.D. 2025-Aug-09 00:00:00.0000, -3.394413323672838E+09, -6.131678038323080E+09, 4.892317446493979E+08,
2460903.500000000, A.D. 2025-Aug-16 00:00:00.0000, -3.392285173187592E+09, -6.132804559709941E+09, 4.898187825602975E+08,
2460910.500000000, A.D. 2025-Aug-23 00:00:00.0000, -3.390156557888655E+09, -6.133930303484194E+09, 4.904057526292934E+08,
2460917.500000000, A.D. 2025-Aug-30 00:00:00.0000, -3.388027475334886E+09, -6.135055272990168E+09, 4.909926544139678E+08,
2460924.500000000, A.D. 2025-Sep-06 00:00:00.0000, -3.385897921183642E+09, -6.136179470065831E+09, 4.915794874120467E+08,
2460931.500000000, A.D. 2025-Sep-13 00:00:00.0000, -3.383767891310171E+09, -6.137302894100861E+09, 4.921662513280821E+08,
2460938.500000000, A.D. 2025-Sep-20 00:00:00.0000, -3.381637383060296E+09, -6.138425543644558E+09, 4.927529460530028E+08,
2460945.500000000, A.D. 2025-Sep-27 00:00:00.0000, -3.379506394577881E+09, -6.139547417451862E+09, 4.933395715139275E+08,
2460952.500000000, A.D. 2025-Oct-04 00:00:00.0000, -3.377374924223751E+09, -6.140668514428054E+09, 4.939261276234622E+08,
2460959.500000000, A.D. 2025-Oct-11 00:00:00.0000, -3.375242970459726E+09, -6.141788833414970E+09, 4.945126142857974E+08,
2460966.500000000, A.D. 2025-Oct-18 00:00:00.0000, -3.373110531914100E+09, -6.142908373092896E+09, 4.950990314111991E+08,
2460973.500000000, A.D. 2025-Oct-25 00:00:00.0000, -3.370977607489035E+09, -6.144027131986759E+09, 4.956853789269536E+08,
2460980.500000000, A.D. 2025-Nov-01 00:00:00.0000, -3.368844196470474E+09, -6.145145108560795E+09, 4.962716567823312E+08,
2460987.500000000, A.D. 2025-Nov-08 00:00:00.0000, -3.366710298606047E+09, -6.146262301432579E+09, 4.968578649416575E+08,
2460994.500000000, A.D. 2025-Nov-15 00:00:00.0000, -3.364575914003173E+09, -6.147378709764565E+09, 4.974440033469615E+08,
2461001.500000000, A.D. 2025-Nov-22 00:00:00.0000, -3.362441042444724E+09, -6.148494333612541E+09, 4.980300718310370E+08,
2461008.500000000, A.D. 2025-Nov-29 00:00:00.0000, -3.360305682275497E+09, -6.149609173095593E+09, 4.986160700875020E+08,
2461015.500000000, A.D. 2025-Dec-06 00:00:00.0000, -3.358169831137015E+09, -6.150723226523144E+09, 4.992019978954365E+08,
2461022.500000000, A.D. 2025-Dec-13 00:00:00.0000, -3.356033488116981E+09, -6.151836490849122E+09, 4.997878552832258E+08,
2461029.500000000, A.D. 2025-Dec-20 00:00:00.0000, -3.353896653820274E+09, -6.152948963429671E+09, 5.003736423947103E+08,
2461036.500000000, A.D. 2025-Dec-27 00:00:00.0000, -3.351759329435303E+09, -6.154060642492696E+09, 5.009593593678224E+08,
2461043.500000000, A.D. 2026-Jan-03 00:00:00.0000, -3.349621516254908E+09, -6.155171526934282E+09, 5.015450063092496E+08,
2461050.500000000, A.D. 2026-Jan-10 00:00:00.0000, -3.347483215542091E+09, -6.156281616120151E+09, 5.021305832995682E+08,
2461057.500000000, A.D. 2026-Jan-17 00:00:00.0000, -3.345344428507990E+09, -6.157390909782952E+09, 5.027160904001417E+08,
2461064.500000000, A.D. 2026-Jan-24 00:00:00.0000, -3.343205156324149E+09, -6.158499407991816E+09, 5.033015276565466E+08,
2461071.500000000, A.D. 2026-Jan-31 00:00:00.0000, -3.341065400145651E+09, -6.159607111200651E+09, 5.038868950958984E+08,
2461078.500000000, A.D. 2026-Feb-07 00:00:00.0000, -3.338925161083575E+09, -6.160714020431606E+09, 5.044721927078478E+08,
2461085.500000000, A.D. 2026-Feb-14 00:00:00.0000, -3.336784439873738E+09, -6.161820137608116E+09, 5.050574203849032E+08,
2461092.500000000, A.D. 2026-Feb-21 00:00:00.0000, -3.334643235854148E+09, -6.162925465459690E+09, 5.056425778337831E+08,
2461099.500000000, A.D. 2026-Feb-28 00:00:00.0000, -3.332501546336009E+09, -6.164030005844377E+09, 5.062276646516697E+08,
2461106.500000000, A.D. 2026-Mar-07 00:00:00.0000, -3.330359368426830E+09, -6.165133758438499E+09, 5.068126805968866E+08,
2461113.500000000, A.D. 2026-Mar-14 00:00:00.0000, -3.328216700529939E+09, -6.166236722126272E+09, 5.073976256088634E+08,
2461120.500000000, A.D. 2026-Mar-21 00:00:00.0000, -3.326073541737487E+09, -6.167338896191206E+09, 5.079824996507940E+08,
2461127.500000000, A.D. 2026-Mar-28 00:00:00.0000, -3.323929891126380E+09, -6.168440280280658E+09, 5.085673026434915E+08,
2461134.500000000, A.D. 2026-Apr-04 00:00:00.0000, -3.321785747560832E+09, -6.169540874109140E+09, 5.091520344670300E+08,
2461141.500000000, A.D. 2026-Apr-11 00:00:00.0000, -3.319641109727616E+09, -6.170640677260353E+09, 5.097366949758315E+08,
2461148.500000000, A.D. 2026-Apr-18 00:00:00.0000, -3.317495976244630E+09, -6.171739689094674E+09, 5.103212840122440E+08,
2461155.500000000, A.D. 2026-Apr-25 00:00:00.0000, -3.315350345796682E+09, -6.172837908747391E+09, 5.109058014158018E+08,
2461162.500000000, A.D. 2026-May-02 00:00:00.0000, -3.313204217267502E+09, -6.173935335247305E+09, 5.114902470231297E+08,
2461169.500000000, A.D. 2026-May-09 00:00:00.0000, -3.311057589742971E+09, -6.175031967821945E+09, 5.120746206418195E+08,
2461176.500000000, A.D. 2026-May-16 00:00:00.0000, -3.308910462007256E+09, -6.176127806250998E+09, 5.126589219750354E+08,
2461183.500000000, A.D. 2026-May-23 00:00:00.0000, -3.306762831479730E+09, -6.177222850245572E+09, 5.132431505757287E+08,
2461190.500000000, A.D. 2026-May-30 00:00:00.0000, -3.304614694670915E+09, -6.178317097533691E+09, 5.138273060472112E+08,
2461197.500000000, A.D. 2026-Jun-06 00:00:00.0000, -3.302466049474656E+09, -6.179410543925556E+09, 5.144113882515941E+08,
2461204.500000000, A.D. 2026-Jun-13 00:00:00.0000, -3.300316895630506E+09, -6.180503185159609E+09, 5.149953972059836E+08,
2461211.500000000, A.D. 2026-Jun-20 00:00:00.0000, -3.298167233857339E+09, -6.181595017603273E+09, 5.155793329513187E+08,
2461218.500000000, A.D. 2026-Jun-27 00:00:00.0000, -3.296017065356554E+09, -6.182686038148166E+09, 5.161631955215964E+08,
2461225.500000000, A.D. 2026-Jul-04 00:00:00.0000, -3.293866391684969E+09, -6.183776244074681E+09, 5.167469849498951E+08,
2461232.500000000, A.D. 2026-Jul-11 00:00:00.0000, -3.291715214743518E+09, -6.184865633017744E+09, 5.173307012768421E+08,
2461239.500000000, A.D. 2026-Jul-18 00:00:00.0000, -3.289563536789012E+09, -6.185954203008020E+09, 5.179143445548813E+08,
2461246.500000000, A.D. 2026-Jul-25 00:00:00.0000, -3.287411360444567E+09, -6.187041952585714E+09, 5.184979148460622E+08,
2461253.500000000, A.D. 2026-Aug-01 00:00:00.0000, -3.285258688660617E+09, -6.188128881035065E+09, 5.190814122048359E+08,
2461260.500000000, A.D. 2026-Aug-08 00:00:00.0000, -3.283105524411671E+09, -6.189214988775298E+09, 5.196648366230624E+08,
2461267.500000000, A.D. 2026-Aug-15 00:00:00.0000, -3.280951869713853E+09, -6.190300277457556E+09, 5.202481879358728E+08,
2461274.500000000, A.D. 2026-Aug-22 00:00:00.0000, -3.278797724724375E+09, -6.191384748546338E+09, 5.208314658579414E+08,
$$EOE